{
  "type": "FeatureCollection",
  "features": [
    {
      "type": "Feature",
      "properties": {
        "norad_id": 33913,
        "name": "COSMOS 2251 DEB",
        "group": "cosmos-2251-debris",
        "lat": -72.93150219332561,
        "lon": 95.61735087624385,
        "alt_km": 703.8536486633102,
        "timestamp": "2025-12-22T23:36:21.109526+00:00",
        "meta_object_name": "COSMOS 2251 DEB",
        "meta_object_id": "1993-036DS",
        "meta_epoch": "2025-12-22T14:24:22.852800",
        "meta_mean_motion": 14.48523713,
        "meta_eccentricity": 0.00481058,
        "meta_inclination": 74.0321,
        "meta_ra_of_asc_node": 165.17,
        "meta_arg_of_pericenter": 265.8341,
        "meta_mean_anomaly": 172.1119,
        "meta_ephemeris_type": 0,
        "meta_classification_type": "U",
        "meta_norad_cat_id": 33913,
        "meta_element_set_no": 999,
        "meta_rev_at_epoch": 88600,
        "meta_bstar": 0.00048759984,
        "meta_mean_motion_dot": 1.829e-05,
        "meta_mean_motion_ddot": 0,
        "tle_line1": "1 33913U 93036DS  25356.60026450  .00001829  00000+0  48760-3 0  9991",
        "tle_line2": "2 33913  74.0321 165.1700 0048105 265.8341 172.1119 14.48523713886007"
      },
      "geometry": {
        "type": "Point",
        "coordinates": [
          95.61735087624385,
          -72.93150219332561
        ]
      }
    },
    {
      "type": "Feature",
      "properties": {
        "norad_id": 33914,
        "name": "COSMOS 2251 DEB",
        "group": "cosmos-2251-debris",
        "lat": -55.028171427534126,
        "lon": -25.849519148835753,
        "alt_km": 1202.4239335295551,
        "timestamp": "2025-12-22T23:36:21.109536+00:00",
        "meta_object_name": "COSMOS 2251 DEB",
        "meta_object_id": "1993-036DT",
        "meta_epoch": "2025-12-22T12:13:55.438752",
        "meta_mean_motion": 13.71990324,
        "meta_eccentricity": 0.03008141,
        "meta_inclination": 74.0911,
        "meta_ra_of_asc_node": 358.9937,
        "meta_arg_of_pericenter": 99.6634,
        "meta_mean_anomaly": 23.5041,
        "meta_ephemeris_type": 0,
        "meta_classification_type": "U",
        "meta_norad_cat_id": 33914,
        "meta_element_set_no": 999,
        "meta_rev_at_epoch": 84215,
        "meta_bstar": 0.00023026933,
        "meta_mean_motion_dot": 2.69e-06,
        "meta_mean_motion_ddot": 0,
        "tle_line1": "1 33914U 93036DT  25356.50966943  .00000269  00000+0  23027-3 0  9997",
        "tle_line2": "2 33914  74.0911 358.9937 0300814  99.6634  23.5041 13.71990324842155"
      },
      "geometry": {
        "type": "Point",
        "coordinates": [
          -25.849519148835753,
          -55.028171427534126
        ]
      }
    },
    {
      "type": "Feature",
      "properties": {
        "norad_id": 33915,
        "name": "COSMOS 2251 DEB",
        "group": "cosmos-2251-debris",
        "lat": -48.121021397046555,
        "lon": -146.05685854187948,
        "alt_km": 823.9516140471378,
        "timestamp": "2025-12-22T23:36:21.109547+00:00",
        "meta_object_name": "COSMOS 2251 DEB",
        "meta_object_id": "1993-036DU",
        "meta_epoch": "2025-12-22T11:25:33.139200",
        "meta_mean_motion": 14.3510367,
        "meta_eccentricity": 0.01040329,
        "meta_inclination": 74.043,
        "meta_ra_of_asc_node": 16.2632,
        "meta_arg_of_pericenter": 106.1808,
        "meta_mean_anomaly": 22.641,
        "meta_ephemeris_type": 0,
        "meta_classification_type": "U",
        "meta_norad_cat_id": 33915,
        "meta_element_set_no": 999,
        "meta_rev_at_epoch": 87897,
        "meta_bstar": 0.00032177171,
        "meta_mean_motion_dot": 9.5e-06,
        "meta_mean_motion_ddot": 0,
        "tle_line1": "1 33915U 93036DU  25356.47607800  .00000950  00000+0  32177-3 0  9991",
        "tle_line2": "2 33915  74.0430  16.2632 0104032 106.1808  22.6410 14.35103670878979"
      },
      "geometry": {
        "type": "Point",
        "coordinates": [
          -146.05685854187948,
          -48.121021397046555
        ]
      }
    },
    {
      "type": "Feature",
      "properties": {
        "norad_id": 33916,
        "name": "COSMOS 2251 DEB",
        "group": "cosmos-2251-debris",
        "lat": 71.87874292338051,
        "lon": 84.65187278676869,
        "alt_km": 1081.8929663073286,
        "timestamp": "2025-12-22T23:36:21.109557+00:00",
        "meta_object_name": "COSMOS 2251 DEB",
        "meta_object_id": "1993-036DV",
        "meta_epoch": "2025-12-22T11:31:10.399872",
        "meta_mean_motion": 13.68623879,
        "meta_eccentricity": 0.03249112,
        "meta_inclination": 74.052,
        "meta_ra_of_asc_node": 24.5842,
        "meta_arg_of_pericenter": 194.6454,
        "meta_mean_anomaly": 289.8397,
        "meta_ephemeris_type": 0,
        "meta_classification_type": "U",
        "meta_norad_cat_id": 33916,
        "meta_element_set_no": 999,
        "meta_rev_at_epoch": 84024,
        "meta_bstar": 0.00031531382,
        "meta_mean_motion_dot": 3.69e-06,
        "meta_mean_motion_ddot": 0,
        "tle_line1": "1 33916U 93036DV  25356.47998148  .00000369  00000+0  31531-3 0  9997",
        "tle_line2": "2 33916  74.0520  24.5842 0324911 194.6454 289.8397 13.68623879840247"
      },
      "geometry": {
        "type": "Point",
        "coordinates": [
          84.65187278676869,
          71.87874292338051
        ]
      }
    },
    {
      "type": "Feature",
      "properties": {
        "norad_id": 33917,
        "name": "COSMOS 2251 DEB",
        "group": "cosmos-2251-debris",
        "lat": -7.024818856408859,
        "lon": -72.390511745286,
        "alt_km": 770.8759512198185,
        "timestamp": "2025-12-22T23:36:21.109568+00:00",
        "meta_object_name": "COSMOS 2251 DEB",
        "meta_object_id": "1993-036DW",
        "meta_epoch": "2025-12-22T01:38:30.207552",
        "meta_mean_motion": 13.69378364,
        "meta_eccentricity": 0.03312399,
        "meta_inclination": 74.1073,
        "meta_ra_of_asc_node": 107.0977,
        "meta_arg_of_pericenter": 206.0293,
        "meta_mean_anomaly": 152.3844,
        "meta_ephemeris_type": 0,
        "meta_classification_type": "U",
        "meta_norad_cat_id": 33917,
        "meta_element_set_no": 999,
        "meta_rev_at_epoch": 83861,
        "meta_bstar": 0.000769663,
        "meta_mean_motion_dot": 9.61e-06,
        "meta_mean_motion_ddot": 0,
        "tle_line1": "1 33917U 93036DW  25356.06840518  .00000961  00000+0  76966-3 0  9999",
        "tle_line2": "2 33917  74.1073 107.0977 0331239 206.0293 152.3844 13.69378364838614"
      },
      "geometry": {
        "type": "Point",
        "coordinates": [
          -72.390511745286,
          -7.024818856408859
        ]
      }
    },
    {
      "type": "Feature",
      "properties": {
        "norad_id": 33920,
        "name": "COSMOS 2251 DEB",
        "group": "cosmos-2251-debris",
        "lat": -48.376152517346235,
        "lon": -99.7981569431213,
        "alt_km": 680.4943072606184,
        "timestamp": "2025-12-22T23:36:21.109578+00:00",
        "meta_object_name": "COSMOS 2251 DEB",
        "meta_object_id": "1993-036DZ",
        "meta_epoch": "2025-12-21T05:02:03.425568",
        "meta_mean_motion": 14.58395783,
        "meta_eccentricity": 0.0037911,
        "meta_inclination": 74.0619,
        "meta_ra_of_asc_node": 282.3307,
        "meta_arg_of_pericenter": 287.7031,
        "meta_mean_anomaly": 71.9996,
        "meta_ephemeris_type": 0,
        "meta_classification_type": "U",
        "meta_norad_cat_id": 33920,
        "meta_element_set_no": 999,
        "meta_rev_at_epoch": 88238,
        "meta_bstar": 0.0012071,
        "meta_mean_motion_dot": 5.624e-05,
        "meta_mean_motion_ddot": 0,
        "tle_line1": "1 33920U 93036DZ  25355.20976187  .00005624  00000+0  12071-2 0  9997",
        "tle_line2": "2 33920  74.0619 282.3307 0037911 287.7031  71.9996 14.58395783882383"
      },
      "geometry": {
        "type": "Point",
        "coordinates": [
          -99.7981569431213,
          -48.376152517346235
        ]
      }
    },
    {
      "type": "Feature",
      "properties": {
        "norad_id": 33922,
        "name": "COSMOS 2251 DEB",
        "group": "cosmos-2251-debris",
        "lat": 51.64751134457431,
        "lon": -72.63726093055453,
        "alt_km": 728.3143839682916,
        "timestamp": "2025-12-22T23:36:21.109589+00:00",
        "meta_object_name": "COSMOS 2251 DEB",
        "meta_object_id": "1993-036EB",
        "meta_epoch": "2025-12-22T11:45:07.583904",
        "meta_mean_motion": 14.49541488,
        "meta_eccentricity": 0.00231623,
        "meta_inclination": 74.0469,
        "meta_ra_of_asc_node": 129.4819,
        "meta_arg_of_pericenter": 239.0175,
        "meta_mean_anomaly": 190.1852,
        "meta_ephemeris_type": 0,
        "meta_classification_type": "U",
        "meta_norad_cat_id": 33922,
        "meta_element_set_no": 999,
        "meta_rev_at_epoch": 88719,
        "meta_bstar": 0.00045845999,
        "meta_mean_motion_dot": 1.737e-05,
        "meta_mean_motion_ddot": 0,
        "tle_line1": "1 33922U 93036EB  25356.48967111  .00001737  00000+0  45846-3 0  9995",
        "tle_line2": "2 33922  74.0469 129.4819 0023162 239.0175 190.1852 14.49541488887193"
      },
      "geometry": {
        "type": "Point",
        "coordinates": [
          -72.63726093055453,
          51.64751134457431
        ]
      }
    }
  ]
}